CARTOSAT-2F
1 42063U 17004A   24154.45726562  .00000000  00000-0  00000-0 0  9991
2 42063  97.4700  70.4100 0001401 342.2900  17.8100 15.22517615 12345